EYESAT A (AO-27)        
1 22825U 93061C   26141.42872086  .00000063  00000+0  41085-4 0  9999
2 22825  98.6890 208.8503 0008570 171.2725 188.8608 14.30934043703170
ITAMSAT (IO-26)         
1 22826U 93061D   26141.41610476  .00000049  00000+0  35454-4 0  9999
2 22826  98.6837 208.7525 0009402 155.7657 204.3970 14.31360098703485
RADIO ROSTO (RS15)      
1 23439U 94085A   26141.59794619 -.00000046  00000+0 -10468-3 0  9994
2 23439  64.8184 346.2201 0155200   8.7614 351.5964 11.27583582292908
JAS-2 (FO-29)           
1 24278U 96046B   26141.54630570  .00000000  00000+0  34558-4 0  9990
2 24278  98.5266 354.0642 0350132 165.4220 195.7337 13.53272944469564
FORTE                   
1 24920U 97047A   26141.26585825  .00000114  00000+0  69137-4 0  9994
2 24920  69.9534  74.8277 0024018 310.1913  49.7106 14.27932647494844
TECHSAT 1B (GO-32)      
1 25397U 98043D   26141.37199971  .00000019  00000+0  28457-4 0  9999
2 25397  99.0064 133.4557 0000542 350.8227   9.2941 14.24422440447515
ISS (ZARYA)             
1 25544U 98067A   26141.29411058  .00005910  00000+0  11416-3 0  9994
2 25544  51.6329  73.2330 0007523  82.0965 278.0877 15.49293486567584
IMAGE                   
1 26113U 00017A   26140.40834432  .00000106  00000+0  33926-1 0  9992
2 26113  94.2067 315.0050 7452477 290.9630   8.3365  1.68665746161037
CLUSTER II-FM7 (SAMBA)  
1 26410U 00041A   26143.59497666  .00002941  00000+0  00000+0 0  9990
2 26410 149.8701  46.5713 9026472 263.4194   0.0915  0.44823860 20192
CLUSTER II-FM8 (TANGO)  
1 26464U 00045B   26143.65123942  .00003021  00000+0  00000+0 0  9993
2 26464 150.1173  47.5958 9029961 264.3022   0.1110  0.44399646 20184
ODIN                    
1 26702U 01007A   26141.54172814  .00086689  00000+0  78977-3 0  9998
2 26702  97.3902 180.9360 0003942 175.7694 184.3601 15.67634136385217
OMNI-M1                 
1 26857U 01026A   26139.43622058 -.00000014  00000+0  00000+0 0  9992
2 26857  44.8407 251.8908 0015186  48.7845 311.3788  3.92401339204446
PCSAT (NO-44)           
1 26931U 01043C   26141.40843060  .00000077  00000+0  59873-4 0  9997
2 26931  67.0507 313.5335 0006210 263.6779  96.3616 14.31944453286612
PROBA-1                 
1 26958U 01049B   26141.58486084  .00000555  00000+0  40169-4 0  9999
2 26958  97.9598 149.1908 0054053 211.5089 148.2898 15.07375055339614
SAUDISAT 1C (SO-50)     
1 27607U 02058C   26141.45153605  .00000579  00000+0  86191-4 0  9999
2 27607  64.5520 211.7006 0075614 267.3643  91.8806 14.82983376260491
CORIOLIS                
1 27640U 03001A   26141.49087193  .00000060  00000+0  48895-4 0  9991
2 27640  98.7132 148.7832 0012852 291.8419  68.1390 14.19936703210436
CUTE-1 (CO-55)          
1 27844U 03031E   26141.48326484  .00000173  00000+0  93673-4 0  9997
2 27844  98.6743 150.3782 0008294 262.0752  97.9485 14.24317125187870
CUBESAT XI-IV (CO-57)   
1 27848U 03031J   26141.45835313  .00000152  00000+0  85962-4 0  9993
2 27848  98.6774 150.0876 0008219 283.6237  76.4026 14.23604667187572
MOZHAETS 4 (RS22)       
1 27939U 03042A   26141.66499449  .00000326  00000+0  58607-4 0  9994
2 27939  98.3469 325.2757 0011252 359.9689  89.1479 14.73412938211646
