OBJECT_NAME,OBJECT_ID,EPOCH,MEAN_MOTION,ECCENTRICITY,INCLINATION,RA_OF_ASC_NODE,ARG_OF_PERICENTER,MEAN_ANOMALY,EPHEMERIS_TYPE,CLASSIFICATION_TYPE,NORAD_CAT_ID,ELEMENT_SET_NO,REV_AT_EPOCH,BSTAR,MEAN_MOTION_DOT,MEAN_MOTION_DDOT
EYESAT A (AO-27),1993-061C,2026-05-21T10:17:21.482304,14.30934043,.00085702,98.6890,208.8503,171.2725,188.8608,0,U,22825,999,70317,.41085423E-4,.63E-6,0
ITAMSAT (IO-26),1993-061D,2026-05-21T09:59:11.451264,14.31360098,.00094029,98.6837,208.7525,155.7657,204.3970,0,U,22826,999,70348,.35454263E-4,.49E-6,0
RADIO ROSTO (RS15),1994-085A,2026-05-21T14:21:02.550816,11.27583582,.01552003,64.8184,346.2201,8.7614,351.5964,0,U,23439,999,29290,-.10468227E-3,-.46E-6,0
JAS-2 (FO-29),1996-046B,2026-05-21T13:06:40.812480,13.53272944,.03501321,98.5266,354.0642,165.4220,195.7337,0,U,24278,999,46956,.34558258E-4,0,0
FORTE,1997-047A,2026-05-21T06:22:50.152800,14.27932647,.00240189,69.9534,74.8277,310.1913,49.7106,0,U,24920,999,49484,.69136795E-4,.114E-5,0
TECHSAT 1B (GO-32),1998-043D,2026-05-21T08:55:40.774944,14.24422440,.00005429,99.0064,133.4557,350.8227,9.2941,0,U,25397,999,44751,.28456517E-4,.19E-6,0
ISS (ZARYA),1998-067A,2026-05-21T07:03:31.154112,15.49293486,.00075232,51.6329,73.2330,82.0965,278.0877,0,U,25544,999,56758,.11416167E-3,.591E-4,0
IMAGE,2000-017A,2026-05-20T09:48:00.949248,1.68665746,.74524778,94.2067,315.0050,290.9630,8.3365,0,U,26113,999,16103,.33926204E-1,.106E-5,0
CLUSTER II-FM7 (SAMBA),2000-041A,2026-05-23T14:16:45.983424,0.44823860,.90264729,149.8701,46.5713,263.4194,0.0915,0,U,26410,999,2019,0,.2941E-4,0
CLUSTER II-FM8 (TANGO),2000-045B,2026-05-23T15:37:47.085888,0.44399646,.90299617,150.1173,47.5958,264.3022,0.1110,0,U,26464,999,2018,0,.3021E-4,0
ODIN,2001-007A,2026-05-21T13:00:05.311296,15.67634136,.00039427,97.3902,180.9360,175.7694,184.3601,0,U,26702,999,38521,.78977426E-3,.86689E-3,0
OMNI-M1,2001-026A,2026-05-19T10:28:09.458112,3.92401339,.00151862,44.8407,251.8908,48.7845,311.3788,0,U,26857,999,20444,0,-.14E-6,0
PCSAT (NO-44),2001-043C,2026-05-21T09:48:08.403840,14.31944453,.00062101,67.0507,313.5335,263.6779,96.3616,0,U,26931,999,28661,.59873484E-4,.77E-6,0
PROBA-1,2001-049B,2026-05-21T14:02:11.976576,15.07375055,.00540535,97.9598,149.1908,211.5089,148.2898,0,U,26958,999,33961,.40169056E-4,.555E-5,0
SAUDISAT 1C (SO-50),2002-058C,2026-05-21T10:50:12.714720,14.82983376,.00756143,64.5520,211.7006,267.3643,91.8806,0,U,27607,999,26049,.8619054E-4,.579E-5,0
CORIOLIS,2003-001A,2026-05-21T11:46:51.334752,14.19936703,.00128523,98.7132,148.7832,291.8419,68.1390,0,U,27640,999,21043,.48895393E-4,.6E-6,0
CUTE-1 (CO-55),2003-031E,2026-05-21T11:35:54.082176,14.24317125,.00082947,98.6743,150.3782,262.0752,97.9485,0,U,27844,999,18787,.93672672E-4,.173E-5,0
CUBESAT XI-IV (CO-57),2003-031J,2026-05-21T11:00:01.710432,14.23604667,.00082197,98.6774,150.0876,283.6237,76.4026,0,U,27848,999,18757,.85962476E-4,.152E-5,0
MOZHAETS 4 (RS22),2003-042A,2026-05-21T15:57:35.523936,14.73412938,.00112524,98.3469,325.2757,359.9689,89.1479,0,U,27939,999,21164,.58607076E-4,.326E-5,0
